{
  "type": "FeatureCollection",
  "features": [
    {
      "type": "Feature",
      "properties": { "name": "Road X - Sector 12", "owner_dept_slug": "road" },
      "geometry": {
        "type": "LineString",
        "coordinates": [[73.8567, 18.5204], [73.8600, 18.5230], [73.8635, 18.5250]]
      }
    },
    {
      "type": "Feature",
      "properties": { "name": "MG Road Extension", "owner_dept_slug": "road" },
      "geometry": {
        "type": "LineString",
        "coordinates": [[73.8500, 18.5100], [73.8550, 18.5150], [73.8590, 18.5190]]
      }
    }
  ]
}
