{
  "type": "FeatureCollection",
  "features": [
    {
      "type": "Feature",
      "properties": { "name": "Fiber Trunk Line 2", "owner_dept_slug": "telecom", "depth_meters": 1 },
      "geometry": {
        "type": "LineString",
        "coordinates": [[73.8590, 18.5195], [73.8610, 18.5230], [73.8630, 18.5248]]
      }
    },
    {
      "type": "Feature",
      "properties": { "name": "Fiber Spur 4", "owner_dept_slug": "telecom", "depth_meters": 1 },
      "geometry": {
        "type": "LineString",
        "coordinates": [[73.8100, 18.4800], [73.8120, 18.4820]]
      }
    }
  ]
}
