{
  "type": "FeatureCollection",
  "features": [
    {
      "type": "Feature",
      "properties": { "name": "Water Main A", "owner_dept_slug": "water", "depth_meters": 2 },
      "geometry": {
        "type": "LineString",
        "coordinates": [[73.8580, 18.5190], [73.8595, 18.5225], [73.8615, 18.5245]]
      }
    },
    {
      "type": "Feature",
      "properties": { "name": "Water Branch Line 7", "owner_dept_slug": "water", "depth_meters": 1 },
      "geometry": {
        "type": "LineString",
        "coordinates": [[73.8300, 18.5000], [73.8320, 18.5020]]
      }
    }
  ]
}
